[{"OBJECT_NAME":"THEA","OBJECT_ID":"2018-099AQ","EPOCH":"2026-03-09T22:33:02.658240","MEAN_MOTION":15.31454284,"ECCENTRICITY":0.00065849,"INCLINATION":97.4542,"RA_OF_ASC_NODE":137.8815,"ARG_OF_PERICENTER":275.4664,"MEAN_ANOMALY":84.5826,"EPHEMERIS_TYPE":0,"CLASSIFICATION_TYPE":"U","NORAD_CAT_ID":43796,"ELEMENT_SET_NO":999,"REV_AT_EPOCH":39748,"BSTAR":0.00074635274,"MEAN_MOTION_DOT":0.00022649,"MEAN_MOTION_DDOT":0},{"OBJECT_NAME":"STARLINK-31209","OBJECT_ID":"2024-020H","EPOCH":"2026-03-09T21:31:33.708288","MEAN_MOTION":15.30186782,"ECCENTRICITY":0.00010168,"INCLINATION":53.1621,"RA_OF_ASC_NODE":321.4006,"ARG_OF_PERICENTER":77.5204,"MEAN_ANOMALY":282.5911,"EPHEMERIS_TYPE":0,"CLASSIFICATION_TYPE":"U","NORAD_CAT_ID":58883,"ELEMENT_SET_NO":999,"REV_AT_EPOCH":11810,"BSTAR":-3.7895091e-5,"MEAN_MOTION_DOT":-1.481e-5,"MEAN_MOTION_DDOT":0}]
